{"spkid": "50673937", "covariance": {"epoch": "2457673.5", "labels": ["e", "q", "tp", "node", "peri", "i"], "data": [["4.439124092531003E-16", "-7.704700430626155E-16", "7.084307374858732E-13", "1.661805263781919E-14", "5.156619854716322E-14", "-4.584979033160933E-15"], ["-7.704700430626155E-16", "1.557964956302218E-15", "-6.628034161420584E-13", "-6.444251713193143E-14", "2.801307779210552E-15", "2.185323800689133E-14"], ["7.084307374858732E-13", "-6.628034161420584E-13", "2.631675926025897E-9", "-8.392095599217598E-11", "3.772122830642075E-10", "3.724281577595391E-11"], ["1.661805263781919E-14", "-6.444251713193143E-14", "-8.392095599217598E-11", "5.085927711442261E-10", "-5.279801768293273E-10", "-3.251205173586353E-11"], ["5.156619854716322E-14", "2.801307779210552E-15", "3.772122830642075E-10", "-5.279801768293273E-10", "6.083236723532226E-10", "4.125397909926102E-11"], ["-4.584979033160933E-15", "2.185323800689133E-14", "3.724281577595391E-11", "-3.251205173586353E-11", "4.125397909926102E-11", "1.23467050969637E-10"]], "elements": [{"units": null, "title": "eccentricity", "value": ".6139385802966177", "sigma": 2.10692289667444e-08, "name": "e", "label": "e"}, {"title": "perihelion distance", "value": ".943630416053389", "units": "au", "name": "q", "sigma": 3.94710647981812e-08, "label": "q"}, {"units": "TDB", "value": "2458272.059290494549", "title": "time of perihelion passage", "name": "tp", "sigma": 5.12998628265797e-05, "label": "tp"}, {"label": "node", "title": "longitude of the ascending node", "value": "89.96657190565884", "units": "deg", "name": "om", "sigma": 2.25520014886534e-05}, {"label": "peri", "value": "234.5801478399152", "title": "argument of perihelion", "units": "deg", "sigma": 2.46642184622425e-05, "name": "w"}, {"name": "i", "sigma": 1.11115728395955e-05, "units": "deg", "title": "inclination", "value": "4.335286303369671", "label": "i"}]}, "elements": [{"sigma": "2.1173E-8", "name": "e", "units": null, "value": ".6126549526681823", "title": "eccentricity", "label": "e"}, {"value": "2.445171955803371", "title": "semi-major axis", "units": "au", "sigma": "5.6364E-8", "name": "a", "label": "a"}, {"label": "q", "value": ".9471252469550903", "title": "perihelion distance", "units": "au", "sigma": "3.9378E-8", "name": "q"}, {"label": "i", "value": "4.333719026898215", "title": "inclination; angle with respect to x-y ecliptic plane", "units": "deg", "sigma": "1.1103E-5", "name": "i"}, {"sigma": "2.2576E-5", "name": "om", "units": "deg", "title": "longitude of the ascending node", "value": "89.81059658187726", "label": "node"}, {"label": "peri", "units": "deg", "title": "argument of perihelion", "value": "234.6896748853251", "sigma": "2.474E-5", "name": "w"}, {"units": "deg", "value": "34.88768804999579", "title": "mean anomaly", "sigma": "3.8589E-5", "name": "ma", "label": "M"}, {"value": "2461065.158113501805", "title": "time of perihelion passage", "units": "TDB", "sigma": ".00014503", "name": "tp", "label": "tp"}, {"sigma": "4.8289E-5", "name": "per", "title": "sidereal orbital period", "value": "1396.569445058311", "units": "d", "label": "period"}, {"label": "n", "title": "mean motion", "value": ".2577745068631148", "units": "deg/d", "sigma": "8.913E-9", "name": "n"}, {"label": "Q", "name": "ad", "sigma": "9.0895E-8", "units": "au", "value": "3.943218664651652", "title": "aphelion distance"}], "epoch": "2461200.5"}